{
  "type": "FeatureCollection",
  "features": [
    {
      "type": "Feature",
      "properties": {
        "norad_id": 36232,
        "name": "FENGYUN 1C DEB",
        "group": "fengyun-1c-debris",
        "lat": -52.816579927008334,
        "lon": 141.27483685970824,
        "alt_km": 930.6669430218653,
        "timestamp": "2025-12-14T22:38:41.046037+00:00",
        "meta_object_name": "FENGYUN 1C DEB",
        "meta_object_id": "1999-025DVH",
        "meta_epoch": "2025-12-13T16:38:24.949248",
        "meta_mean_motion": 14.12503312,
        "meta_eccentricity": 0.01190746,
        "meta_inclination": 98.7046,
        "meta_ra_of_asc_node": 331.7114,
        "meta_arg_of_pericenter": 25.4348,
        "meta_mean_anomaly": 335.262,
        "meta_ephemeris_type": 0,
        "meta_classification_type": "U",
        "meta_norad_cat_id": 36232,
        "meta_element_set_no": 999,
        "meta_rev_at_epoch": 61749,
        "meta_bstar": 0.00047398926,
        "meta_mean_motion_dot": 8.94e-06,
        "meta_mean_motion_ddot": 0,
        "tle_line1": "1 36232U 99025DVH 25347.69334432  .00000894  00000+0  47399-3 0  9991",
        "tle_line2": "2 36232  98.7046 331.7114 0119074  25.4348 335.2620 14.12503312617490"
      },
      "geometry": {
        "type": "Point",
        "coordinates": [
          141.27483685970824,
          -52.816579927008334
        ]
      }
    },
    {
      "type": "Feature",
      "properties": {
        "norad_id": 36234,
        "name": "FENGYUN 1C DEB",
        "group": "fengyun-1c-debris",
        "lat": -0.13161912255931574,
        "lon": -121.48857059574686,
        "alt_km": 1308.6596611347786,
        "timestamp": "2025-12-14T22:38:41.046047+00:00",
        "meta_object_name": "FENGYUN 1C DEB",
        "meta_object_id": "1999-025DVK",
        "meta_epoch": "2025-12-08T10:31:28.850304",
        "meta_mean_motion": 13.45655828,
        "meta_eccentricity": 0.03174488,
        "meta_inclination": 99.0031,
        "meta_ra_of_asc_node": 52.6849,
        "meta_arg_of_pericenter": 39.1104,
        "meta_mean_anomaly": 323.2521,
        "meta_ephemeris_type": 0,
        "meta_classification_type": "U",
        "meta_norad_cat_id": 36234,
        "meta_element_set_no": 999,
        "meta_rev_at_epoch": 87889,
        "meta_bstar": 0.00050484626,
        "meta_mean_motion_dot": 3.7e-06,
        "meta_mean_motion_ddot": 0,
        "tle_line1": "1 36234U 99025DVK 25342.43852836  .00000370  00000+0  50485-3 0  9992",
        "tle_line2": "2 36234  99.0031  52.6849 0317448  39.1104 323.2521 13.45655828878896"
      },
      "geometry": {
        "type": "Point",
        "coordinates": [
          -121.48857059574686,
          -0.13161912255931574
        ]
      }
    },
    {
      "type": "Feature",
      "properties": {
        "norad_id": 36236,
        "name": "FENGYUN 1C DEB",
        "group": "fengyun-1c-debris",
        "lat": -49.687062238539085,
        "lon": -161.3742176740648,
        "alt_km": 1020.4618225290151,
        "timestamp": "2025-12-14T22:38:41.046057+00:00",
        "meta_object_name": "FENGYUN 1C DEB",
        "meta_object_id": "1999-025DVM",
        "meta_epoch": "2025-12-10T20:13:13.163808",
        "meta_mean_motion": 13.81954009,
        "meta_eccentricity": 0.0149575,
        "meta_inclination": 98.85,
        "meta_ra_of_asc_node": 25.3566,
        "meta_arg_of_pericenter": 3.3066,
        "meta_mean_anomaly": 356.9043,
        "meta_ephemeris_type": 0,
        "meta_classification_type": "U",
        "meta_norad_cat_id": 36236,
        "meta_element_set_no": 999,
        "meta_rev_at_epoch": 59721,
        "meta_bstar": 0.00040381,
        "meta_mean_motion_dot": 4.31e-06,
        "meta_mean_motion_ddot": 0,
        "tle_line1": "1 36236U 99025DVM 25344.84251347  .00000431  00000+0  40381-3 0  9993",
        "tle_line2": "2 36236  98.8500  25.3566 0149575   3.3066 356.9043 13.81954009597212"
      },
      "geometry": {
        "type": "Point",
        "coordinates": [
          -161.3742176740648,
          -49.687062238539085
        ]
      }
    },
    {
      "type": "Feature",
      "properties": {
        "norad_id": 36238,
        "name": "FENGYUN 1C DEB",
        "group": "fengyun-1c-debris",
        "lat": -70.74227585429328,
        "lon": 115.51283309498062,
        "alt_km": 845.0306288030824,
        "timestamp": "2025-12-14T22:38:41.046067+00:00",
        "meta_object_name": "FENGYUN 1C DEB",
        "meta_object_id": "1999-025DVP",
        "meta_epoch": "2025-12-14T04:26:54.233088",
        "meta_mean_motion": 14.12390961,
        "meta_eccentricity": 0.00201196,
        "meta_inclination": 98.647,
        "meta_ra_of_asc_node": 320.6024,
        "meta_arg_of_pericenter": 277.4864,
        "meta_mean_anomaly": 82.4022,
        "meta_ephemeris_type": 0,
        "meta_classification_type": "U",
        "meta_norad_cat_id": 36238,
        "meta_element_set_no": 999,
        "meta_rev_at_epoch": 87038,
        "meta_bstar": 0.00010043414,
        "meta_mean_motion_dot": 1.43e-06,
        "meta_mean_motion_ddot": 0,
        "tle_line1": "1 36238U 99025DVP 25348.18534992  .00000143  00000+0  10043-3 0  9998",
        "tle_line2": "2 36238  98.6470 320.6024 0020119 277.4864  82.4022 14.12390961870386"
      },
      "geometry": {
        "type": "Point",
        "coordinates": [
          115.51283309498062,
          -70.74227585429328
        ]
      }
    },
    {
      "type": "Feature",
      "properties": {
        "norad_id": 36244,
        "name": "FENGYUN 1C DEB",
        "group": "fengyun-1c-debris",
        "lat": -72.41362709144576,
        "lon": -110.12195031368668,
        "alt_km": 783.4458233465102,
        "timestamp": "2025-12-14T22:38:41.046077+00:00",
        "meta_object_name": "FENGYUN 1C DEB",
        "meta_object_id": "1999-025DVV",
        "meta_epoch": "2025-12-14T06:16:57.462816",
        "meta_mean_motion": 14.24987194,
        "meta_eccentricity": 0.00489535,
        "meta_inclination": 98.9249,
        "meta_ra_of_asc_node": 98.9064,
        "meta_arg_of_pericenter": 280.0452,
        "meta_mean_anomaly": 79.5205,
        "meta_ephemeris_type": 0,
        "meta_classification_type": "U",
        "meta_norad_cat_id": 36244,
        "meta_element_set_no": 999,
        "meta_rev_at_epoch": 92000,
        "meta_bstar": 0.0019822396,
        "meta_mean_motion_dot": 4.653e-05,
        "meta_mean_motion_ddot": 0,
        "tle_line1": "1 36244U 99025DVV 25348.26177619  .00004653  00000+0  19822-2 0  9996",
        "tle_line2": "2 36244  98.9249  98.9064 0048953 280.0452  79.5205 14.24987194920006"
      },
      "geometry": {
        "type": "Point",
        "coordinates": [
          -110.12195031368668,
          -72.41362709144576
        ]
      }
    },
    {
      "type": "Feature",
      "properties": {
        "norad_id": 36247,
        "name": "FENGYUN 1C DEB",
        "group": "fengyun-1c-debris",
        "lat": -81.71735790536657,
        "lon": 89.34171821197346,
        "alt_km": 845.5662232144305,
        "timestamp": "2025-12-14T22:38:41.046087+00:00",
        "meta_object_name": "FENGYUN 1C DEB",
        "meta_object_id": "1999-025DVY",
        "meta_epoch": "2025-12-13T00:09:22.521888",
        "meta_mean_motion": 14.33584835,
        "meta_eccentricity": 0.01872593,
        "meta_inclination": 98.2691,
        "meta_ra_of_asc_node": 0.069,
        "meta_arg_of_pericenter": 32.9753,
        "meta_mean_anomaly": 328.295,
        "meta_ephemeris_type": 0,
        "meta_classification_type": "U",
        "meta_norad_cat_id": 36247,
        "meta_element_set_no": 999,
        "meta_rev_at_epoch": 70266,
        "meta_bstar": 0.00073183563,
        "meta_mean_motion_dot": 2.42e-05,
        "meta_mean_motion_ddot": 0,
        "tle_line1": "1 36247U 99025DVY 25347.00651067  .00002420  00000+0  73184-3 0  9996",
        "tle_line2": "2 36247  98.2691   0.0690 0187259  32.9753 328.2950 14.33584835702669"
      },
      "geometry": {
        "type": "Point",
        "coordinates": [
          89.34171821197346,
          -81.71735790536657
        ]
      }
    },
    {
      "type": "Feature",
      "properties": {
        "norad_id": 36254,
        "name": "FENGYUN 1C DEB",
        "group": "fengyun-1c-debris",
        "lat": -75.74085720236558,
        "lon": 82.25366704701885,
        "alt_km": 541.2546484612585,
        "timestamp": "2025-12-14T22:38:41.046097+00:00",
        "meta_object_name": "FENGYUN 1C DEB",
        "meta_object_id": "1999-025DWF",
        "meta_epoch": "2025-12-05T14:18:33.750144",
        "meta_mean_motion": 15.16014702,
        "meta_eccentricity": 0.00460473,
        "meta_inclination": 99.5277,
        "meta_ra_of_asc_node": 291.891,
        "meta_arg_of_pericenter": 66.6494,
        "meta_mean_anomaly": 293.9567,
        "meta_ephemeris_type": 0,
        "meta_classification_type": "U",
        "meta_norad_cat_id": 36254,
        "meta_element_set_no": 999,
        "meta_rev_at_epoch": 60668,
        "meta_bstar": 0.0055743559,
        "meta_mean_motion_dot": 0.00111504,
        "meta_mean_motion_ddot": 0,
        "tle_line1": "1 36254U 99025DWF 25339.59622396  .00111504  00000+0  55744-2 0  9997",
        "tle_line2": "2 36254  99.5277 291.8910 0046047  66.6494 293.9567 15.16014702606681"
      },
      "geometry": {
        "type": "Point",
        "coordinates": [
          82.25366704701885,
          -75.74085720236558
        ]
      }
    }
  ]
}